[{"OBJECT_NAME":"NOAA 1","OBJECT_ID":"1970-106A","EPOCH":"2026-03-07T15:57:10.176768","MEAN_MOTION":12.54049254,"ECCENTRICITY":0.00317375,"INCLINATION":101.3518,"RA_OF_ASC_NODE":105.7803,"ARG_OF_PERICENTER":184.8148,"MEAN_ANOMALY":285.9585,"EPHEMERIS_TYPE":0,"CLASSIFICATION_TYPE":"U","NORAD_CAT_ID":4793,"ELEMENT_SET_NO":999,"REV_AT_EPOCH":52796,"BSTAR":-1.5612529e-5,"MEAN_MOTION_DOT":-4.5e-7,"MEAN_MOTION_DDOT":0},{"OBJECT_NAME":"NOAA 2 (ITOS-D)","OBJECT_ID":"1972-082A","EPOCH":"2026-03-07T14:12:36.880128","MEAN_MOTION":12.53211761,"ECCENTRICITY":0.00039875,"INCLINATION":102.0166,"RA_OF_ASC_NODE":84.022,"ARG_OF_PERICENTER":9.2246,"MEAN_ANOMALY":102.3539,"EPHEMERIS_TYPE":0,"CLASSIFICATION_TYPE":"U","NORAD_CAT_ID":6235,"ELEMENT_SET_NO":999,"REV_AT_EPOCH":44222,"BSTAR":1.2567685e-5,"MEAN_MOTION_DOT":-4.4e-7,"MEAN_MOTION_DDOT":0},{"OBJECT_NAME":"NOAA 3","OBJECT_ID":"1973-086A","EPOCH":"2026-03-07T15:59:54.964896","MEAN_MOTION":12.40391666,"ECCENTRICITY":0.00061924,"INCLINATION":102.2908,"RA_OF_ASC_NODE":79.6253,"ARG_OF_PERICENTER":312.7055,"MEAN_ANOMALY":159.5322,"EPHEMERIS_TYPE":0,"CLASSIFICATION_TYPE":"U","NORAD_CAT_ID":6920,"ELEMENT_SET_NO":999,"REV_AT_EPOCH":36931,"BSTAR":-1.764742e-6,"MEAN_MOTION_DOT":-4.7e-7,"MEAN_MOTION_DDOT":0},{"OBJECT_NAME":"NOAA 4","OBJECT_ID":"1974-089A","EPOCH":"2026-03-07T15:38:15.494208","MEAN_MOTION":12.53201605,"ECCENTRICITY":0.0009137,"INCLINATION":102.0074,"RA_OF_ASC_NODE":78.3609,"ARG_OF_PERICENTER":32.6303,"MEAN_ANOMALY":79.0413,"EPHEMERIS_TYPE":0,"CLASSIFICATION_TYPE":"U","NORAD_CAT_ID":7529,"ELEMENT_SET_NO":999,"REV_AT_EPOCH":34680,"BSTAR":-6.782307e-6,"MEAN_MOTION_DOT":-4.7e-7,"MEAN_MOTION_DDOT":0},{"OBJECT_NAME":"NOAA 5","OBJECT_ID":"1976-077A","EPOCH":"2026-03-07T14:08:57.937344","MEAN_MOTION":12.37828325,"ECCENTRICITY":0.00097822,"INCLINATION":102.2958,"RA_OF_ASC_NODE":52.0853,"ARG_OF_PERICENTER":164.577,"MEAN_ANOMALY":311.0803,"EPHEMERIS_TYPE":0,"CLASSIFICATION_TYPE":"U","NORAD_CAT_ID":9057,"ELEMENT_SET_NO":999,"REV_AT_EPOCH":24190,"BSTAR":0.00012894157,"MEAN_MOTION_DOT":-2.9e-7,"MEAN_MOTION_DDOT":0},{"OBJECT_NAME":"TIROS N","OBJECT_ID":"1978-096A","EPOCH":"2026-03-07T15:01:46.941600","MEAN_MOTION":14.19337485,"ECCENTRICITY":0.00106358,"INCLINATION":98.4637,"RA_OF_ASC_NODE":92.2378,"ARG_OF_PERICENTER":170.8981,"MEAN_ANOMALY":189.239,"EPHEMERIS_TYPE":0,"CLASSIFICATION_TYPE":"U","NORAD_CAT_ID":11060,"ELEMENT_SET_NO":999,"REV_AT_EPOCH":66434,"BSTAR":0.0001277906,"MEAN_MOTION_DOT":2.27e-6,"MEAN_MOTION_DDOT":0},{"OBJECT_NAME":"NOAA 6","OBJECT_ID":"1979-057A","EPOCH":"2026-03-07T14:23:44.152512","MEAN_MOTION":14.35431948,"ECCENTRICITY":0.00096014,"INCLINATION":98.5754,"RA_OF_ASC_NODE":96.7659,"ARG_OF_PERICENTER":193.192,"MEAN_ANOMALY":166.9016,"EPHEMERIS_TYPE":0,"CLASSIFICATION_TYPE":"U","NORAD_CAT_ID":11416,"ELEMENT_SET_NO":999,"REV_AT_EPOCH":43638,"BSTAR":0.00016387482,"MEAN_MOTION_DOT":4.27e-6,"MEAN_MOTION_DDOT":0},{"OBJECT_NAME":"NOAA 7","OBJECT_ID":"1981-059A","EPOCH":"2026-03-07T14:44:57.903648","MEAN_MOTION":14.17772863,"ECCENTRICITY":0.00112621,"INCLINATION":98.8064,"RA_OF_ASC_NODE":134.6831,"ARG_OF_PERICENTER":193.826,"MEAN_ANOMALY":166.2608,"EPHEMERIS_TYPE":0,"CLASSIFICATION_TYPE":"U","NORAD_CAT_ID":12553,"ELEMENT_SET_NO":999,"REV_AT_EPOCH":31035,"BSTAR":5.6747655e-5,"MEAN_MOTION_DOT":7.2e-7,"MEAN_MOTION_DDOT":0},{"OBJECT_NAME":"NOAA 8","OBJECT_ID":"1983-022A","EPOCH":"2026-03-07T14:16:37.036704","MEAN_MOTION":14.29766,"ECCENTRICITY":0.0014547,"INCLINATION":98.7375,"RA_OF_ASC_NODE":79.3854,"ARG_OF_PERICENTER":191.7494,"MEAN_ANOMALY":168.3351,"EPHEMERIS_TYPE":0,"CLASSIFICATION_TYPE":"U","NORAD_CAT_ID":13923,"ELEMENT_SET_NO":999,"REV_AT_EPOCH":23655,"BSTAR":9.9295396e-5,"MEAN_MOTION_DOT":2.1e-6,"MEAN_MOTION_DDOT":0},{"OBJECT_NAME":"NOAA 9","OBJECT_ID":"1984-123A","EPOCH":"2026-03-07T14:35:26.146464","MEAN_MOTION":14.17038266,"ECCENTRICITY":0.00136835,"INCLINATION":99.1098,"RA_OF_ASC_NODE":90.844,"ARG_OF_PERICENTER":278.0303,"MEAN_ANOMALY":192.61,"EPHEMERIS_TYPE":0,"CLASSIFICATION_TYPE":"U","NORAD_CAT_ID":15427,"ELEMENT_SET_NO":999,"REV_AT_EPOCH":12903,"BSTAR":0.00010683964,"MEAN_MOTION_DOT":1.68e-6,"MEAN_MOTION_DDOT":0},{"OBJECT_NAME":"NOAA 10","OBJECT_ID":"1986-073A","EPOCH":"2026-03-07T14:14:21.342048","MEAN_MOTION":14.29143396,"ECCENTRICITY":0.00110972,"INCLINATION":98.7,"RA_OF_ASC_NODE":59.9902,"ARG_OF_PERICENTER":295.9295,"MEAN_ANOMALY":176.2498,"EPHEMERIS_TYPE":0,"CLASSIFICATION_TYPE":"U","NORAD_CAT_ID":16969,"ELEMENT_SET_NO":999,"REV_AT_EPOCH":5490,"BSTAR":0.00010987676,"MEAN_MOTION_DOT":2.34e-6,"MEAN_MOTION_DDOT":0},{"OBJECT_NAME":"NOAA 11","OBJECT_ID":"1988-089A","EPOCH":"2026-03-07T14:17:53.155104","MEAN_MOTION":14.15820293,"ECCENTRICITY":0.00101659,"INCLINATION":98.6092,"RA_OF_ASC_NODE":15.7068,"ARG_OF_PERICENTER":226.0374,"MEAN_ANOMALY":133.9962,"EPHEMERIS_TYPE":0,"CLASSIFICATION_TYPE":"U","NORAD_CAT_ID":19531,"ELEMENT_SET_NO":999,"REV_AT_EPOCH":93310,"BSTAR":8.3967702e-5,"MEAN_MOTION_DOT":1.23e-6,"MEAN_MOTION_DDOT":0},{"OBJECT_NAME":"NOAA 12","OBJECT_ID":"1991-032A","EPOCH":"2026-03-07T13:54:19.918080","MEAN_MOTION":14.26716829,"ECCENTRICITY":0.00130515,"INCLINATION":98.6152,"RA_OF_ASC_NODE":56.6135,"ARG_OF_PERICENTER":329.6647,"MEAN_ANOMALY":30.3777,"EPHEMERIS_TYPE":0,"CLASSIFICATION_TYPE":"U","NORAD_CAT_ID":21263,"ELEMENT_SET_NO":999,"REV_AT_EPOCH":81047,"BSTAR":9.0103957e-5,"MEAN_MOTION_DOT":1.75e-6,"MEAN_MOTION_DDOT":0},{"OBJECT_NAME":"NOAA 13","OBJECT_ID":"1993-050A","EPOCH":"2026-03-07T10:56:00.944736","MEAN_MOTION":14.13635653,"ECCENTRICITY":0.00104698,"INCLINATION":98.693,"RA_OF_ASC_NODE":14.2651,"ARG_OF_PERICENTER":62.8089,"MEAN_ANOMALY":297.415,"EPHEMERIS_TYPE":0,"CLASSIFICATION_TYPE":"U","NORAD_CAT_ID":22739,"ELEMENT_SET_NO":999,"REV_AT_EPOCH":67900,"BSTAR":0.0001235111,"MEAN_MOTION_DOT":1.9e-6,"MEAN_MOTION_DDOT":0},{"OBJECT_NAME":"NOAA 14","OBJECT_ID":"1994-089A","EPOCH":"2026-03-07T13:26:40.888608","MEAN_MOTION":14.14654634,"ECCENTRICITY":0.00099161,"INCLINATION":98.502,"RA_OF_ASC_NODE":40.8763,"ARG_OF_PERICENTER":22.2963,"MEAN_ANOMALY":337.864,"EPHEMERIS_TYPE":0,"CLASSIFICATION_TYPE":"U","NORAD_CAT_ID":23455,"ELEMENT_SET_NO":999,"REV_AT_EPOCH":60883,"BSTAR":7.3212185e-5,"MEAN_MOTION_DOT":1.0e-6,"MEAN_MOTION_DDOT":0},{"OBJECT_NAME":"NOAA 15","OBJECT_ID":"1998-030A","EPOCH":"2026-03-07T14:17:17.911680","MEAN_MOTION":14.27111574,"ECCENTRICITY":0.00090918,"INCLINATION":98.5165,"RA_OF_ASC_NODE":89.9313,"ARG_OF_PERICENTER":287.0591,"MEAN_ANOMALY":72.9594,"EPHEMERIS_TYPE":0,"CLASSIFICATION_TYPE":"U","NORAD_CAT_ID":25338,"ELEMENT_SET_NO":999,"REV_AT_EPOCH":44680,"BSTAR":9.4237034e-5,"MEAN_MOTION_DOT":1.87e-6,"MEAN_MOTION_DDOT":0},{"OBJECT_NAME":"NOAA 16","OBJECT_ID":"2000-055A","EPOCH":"2026-03-07T14:47:55.458240","MEAN_MOTION":14.13897467,"ECCENTRICITY":0.00095073,"INCLINATION":98.4706,"RA_OF_ASC_NODE":86.2275,"ARG_OF_PERICENTER":228.7351,"MEAN_ANOMALY":131.3004,"EPHEMERIS_TYPE":0,"CLASSIFICATION_TYPE":"U","NORAD_CAT_ID":26536,"ELEMENT_SET_NO":999,"REV_AT_EPOCH":60937,"BSTAR":9.6773753e-5,"MEAN_MOTION_DOT":1.43e-6,"MEAN_MOTION_DDOT":0}]
