NOAA 1                  
1 04793U 70106A   26066.66470112 -.00000045  00000+0 -15613-4 0  9994
2 04793 101.3518 105.7803 0031737 184.8148 285.9585 12.54049254527960
NOAA 2 (ITOS-D)         
1 06235U 72082A   26066.59209352 -.00000044  00000+0  12568-4 0  9994
2 06235 102.0166  84.0220 0003987   9.2246 102.3539 12.53211761442226
NOAA 3                  
1 06920U 73086A   26066.66660839 -.00000047  00000+0 -17647-5 0  9997
2 06920 102.2908  79.6253 0006192 312.7055 159.5322 12.40391666369311
NOAA 4                  
1 07529U 74089A   26066.65156822 -.00000047  00000+0 -67823-5 0  9999
2 07529 102.0074  78.3609 0009137  32.6303  79.0413 12.53201605346809
NOAA 5                  
1 09057U 76077A   26066.58955946 -.00000029  00000+0  12894-3 0  9997
2 09057 102.2958  52.0853 0009782 164.5770 311.0803 12.37828325241902
TIROS N                 
1 11060U 78096A   26066.62623775  .00000227  00000+0  12779-3 0  9995
2 11060  98.4637  92.2378 0010635 170.8981 189.2390 14.19337485664347
NOAA 6                  
1 11416U 79057A   26066.59981658  .00000427  00000+0  16387-3 0  9992
2 11416  98.5754  96.7659 0009601 193.1920 166.9016 14.35431948436381
NOAA 7                  
1 12553U 81059A   26066.61455907  .00000072  00000+0  56748-4 0  9998
2 12553  98.8064 134.6831 0011262 193.8260 166.2608 14.17772863310357
NOAA 8                  
1 13923U 83022A   26066.59487311  .00000210  00000+0  99295-4 0  9991
2 13923  98.7375  79.3854 0014547 191.7494 168.3351 14.29766000236554
NOAA 9                  
1 15427U 84123A   26066.60794151  .00000168  00000+0  10684-3 0  9996
2 15427  99.1098  90.8440 0013683 278.0303 192.6100 14.17038266129038
NOAA 10                 
1 16969U 86073A   26066.59330257  .00000234  00000+0  10988-3 0  9996
2 16969  98.7000  59.9902 0011097 295.9295 176.2498 14.29143396 54907
NOAA 11                 
1 19531U 88089A   26066.59575411  .00000123  00000+0  83968-4 0  9992
2 19531  98.6092  15.7068 0010165 226.0374 133.9962 14.15820293933103
NOAA 12                 
1 21263U 91032A   26066.57939720  .00000175  00000+0  90104-4 0  9991
2 21263  98.6152  56.6135 0013051 329.6647  30.3777 14.26716829810473
NOAA 13                 
1 22739U 93050A   26066.45556649  .00000190  00000+0  12351-3 0  9998
2 22739  98.6930  14.2651 0010469  62.8089 297.4150 14.13635653679009
NOAA 14                 
1 23455U 94089A   26066.56019547  .00000100  00000+0  73212-4 0  9995
2 23455  98.5020  40.8763 0009916  22.2963 337.8640 14.14654634608836
NOAA 15                 
1 25338U 98030A   26066.59534620  .00000187  00000+0  94237-4 0  9999
2 25338  98.5165  89.9313 0009091 287.0591  72.9594 14.27111574446802
NOAA 16                 
1 26536U 00055A   26066.61661410  .00000143  00000+0  96774-4 0  9991
2 26536  98.4706  86.2275 0009507 228.7351 131.3004 14.13897467609374
